XRISM                   
1 57800U 23137A   24242.74355103  .00011013  00000+0  80599-3 0  9997
2 57800  31.0019 264.0442 0009941 216.5433 143.4525 15.02340100 53676
